NORAD_CAT_ID,OBJECT_NAME,OBJECT_TYPE,EPOCH,MEAN_MOTION,ECCENTRICITY,INCLINATION,RA_OF_ASC_NODE,ARG_OF_PERICENTER,MEAN_ANOMALY,BSTAR,MEAN_MOTION_DOT,MEAN_MOTION_DDOT,TLE_LINE0,TLE_LINE1,TLE_LINE2,SEMIMAJOR_AXIS,PERIOD,APOGEE,PERIGEE,DECAYED
55935.0,STARLINK-5920,PAYLOAD,2023-12-12 13:56:25,14.98329892,0.0002027,69.9983,187.2682,262.46,97.6328,2.1645e-05,1.65e-06,0.0,0 STARLINK-5920,1 55935U 23037X   23346.58084585  .00000165  00000-0  21645-4 0  9997,2 55935  69.9983 187.2682 0002027 262.4600  97.6328 14.98329892 41430,6950.193,96.107,573.467,570.649,0.0
55935.0,STARLINK-5920,PAYLOAD,2023-12-12 20:20:57,14.9832994,0.0002034,69.9984,186.5947,263.1321,96.9607,1.9996e-05,1.46e-06,0.0,0 STARLINK-5920,1 55935U 23037X   23346.84788573  .00000146  00000-0  19996-4 0  9999,2 55935  69.9984 186.5947 0002034 263.1321  96.9607 14.98329940 41811,6950.193,96.107,573.472,570.644,0.0
55935.0,STARLINK-5920,PAYLOAD,2023-12-12 21:57:05,14.98330058,0.0002033,69.9984,186.4264,263.3626,96.7302,2.0842e-05,1.56e-06,0.0,0 STARLINK-5920,1 55935U 23037X   23346.91464563  .00000156  00000-0  20842-4 0  9990,2 55935  69.9984 186.4264 0002033 263.3626  96.7302 14.98330058 41486,6950.193,96.107,573.471,570.645,0.0
55935.0,STARLINK-5920,PAYLOAD,2023-12-13 13:58:25,14.98332759,0.0002048,69.9983,184.7428,265.4164,94.6761,1.5742e-05,9.5e-07,0.0,0 STARLINK-5920,1 55935U 23037X   23347.58224319  .00000095  00000-0  15742-4 0  9992,2 55935  69.9983 184.7428 0002048 265.4164  94.6761 14.98332759 41581,6950.184,96.107,573.473,570.626,0.0
55935.0,STARLINK-5920,PAYLOAD,2023-12-13 20:22:57,14.98333043,0.0002041,69.9984,184.0694,265.9096,94.183,1.8465e-05,1.27e-06,0.0,0 STARLINK-5920,1 55935U 23037X   23347.84928235  .00000127  00000-0  18465-4 0  9990,2 55935  69.9984 184.0694 0002041 265.9096  94.1830 14.98333043 41963,6950.183,96.107,573.467,570.63,0.0
55935.0,STARLINK-5920,PAYLOAD,2023-12-13 21:59:06,14.98332923,0.0002047,69.9983,183.901,266.7011,93.3914,1.6604e-05,1.05e-06,0.0,0 STARLINK-5920,1 55935U 23037X   23347.91604235  .00000105  00000-0  16604-4 0  9998,2 55935  69.9983 183.9010 0002047 266.7011  93.3914 14.98332923 41638,6950.184,96.107,573.472,570.626,0.0
55935.0,STARLINK-5920,PAYLOAD,2023-12-14 14:00:26,14.98328353,0.0001966,69.9986,182.218,266.7247,93.3688,-2.1883e-05,-3.54e-06,0.0,0 STARLINK-5920,1 55935U 23037X   23348.58364570 -.00000354  00000-0 -21883-4 0  9990,2 55935  69.9986 182.2180 0001966 266.7247  93.3688 14.98328353 41732,6950.198,96.107,573.429,570.697,0.0
55935.0,STARLINK-5920,PAYLOAD,2023-12-14 20:24:59,14.98328021,0.0001974,69.9985,181.5446,265.3835,94.7098,-2.4317e-05,-3.83e-06,0.0,0 STARLINK-5920,1 55935U 23037X   23348.85068597 -.00000383  00000-0 -24317-4 0  9997,2 55935  69.9985 181.5446 0001974 265.3835  94.7098 14.98328021 42110,6950.199,96.107,573.436,570.692,0.0
55935.0,STARLINK-5920,PAYLOAD,2023-12-14 22:01:07,14.98327843,0.0001976,69.9985,181.3762,265.9146,94.1787,-2.6185e-05,-4.05e-06,0.0,0 STARLINK-5920,1 55935U 23037X   23348.91744618 -.00000405  00000-0 -26185-4 0  9999,2 55935  69.9985 181.3762 0001976 265.9146  94.1787 14.98327843 41784,6950.2,96.107,573.438,570.691,0.0
55935.0,STARLINK-5920,PAYLOAD,2023-12-15 14:02:27,14.98330759,0.0001933,69.9986,179.6928,267.0128,93.0809,-1.2735e-05,-2.45e-06,0.0,0 STARLINK-5920,1 55935U 23037X   23349.58504391 -.00000245  00000-0 -12735-4 0  9993,2 55935  69.9986 179.6928 0001933 267.0128  93.0809 14.98330759 41889,6950.191,96.107,573.399,570.712,0.0
55935.0,STARLINK-5920,PAYLOAD,2023-12-15 22:03:08,14.98329519,0.000195,69.9985,178.8513,265.8995,94.1942,-2.5109e-05,-3.92e-06,0.0,0 STARLINK-5920,1 55935U 23037X   23349.91884486 -.00000392  00000-0 -25109-4 0  9998,2 55935  69.9985 178.8513 0001950 265.8995  94.1942 14.98329519 41934,6950.194,96.107,573.415,570.704,0.0
55935.0,STARLINK-5920,PAYLOAD,2023-12-16 14:04:28,14.98327978,0.0002065,69.9981,177.1671,270.6018,89.4904,1.8443e-05,1.27e-06,0.0,0 STARLINK-5920,1 55935U 23037X   23350.58644479  .00000127  00000-0  18443-4 0  9996,2 55935  69.9981 177.1671 0002065 270.6018  89.4904 14.98327978 42039,6950.199,96.107,573.499,570.629,0.0
55935.0,STARLINK-5920,PAYLOAD,2023-12-16 22:05:09,14.98328039,0.0002042,69.9984,176.3259,268.9476,91.1449,1.8889e-05,1.32e-06,0.0,0 STARLINK-5920,1 55935U 23037X   23350.92024495  .00000132  00000-0  18889-4 0  9994,2 55935  69.9984 176.3259 0002042 268.9476  91.1449 14.98328039 42086,6950.199,96.107,573.483,570.645,0.0
55935.0,STARLINK-5920,PAYLOAD,2023-12-17 14:06:29,14.98328648,0.000201,69.9986,174.6429,269.2364,90.8564,6.0811e-06,-2e-07,0.0,0 STARLINK-5920,1 55935U 23037X   23351.58784538 -.00000020  00000-0  60811-5 0  9998,2 55935  69.9986 174.6429 0002010 269.2364  90.8564 14.98328648 42184,6950.197,96.107,573.459,570.665,0.0
55935.0,STARLINK-5920,PAYLOAD,2023-12-17 22:07:10,14.98329787,0.0001971,69.9987,173.8015,266.2781,93.8153,1.8998e-05,1.34e-06,0.0,0 STARLINK-5920,1 55935U 23037X   23351.92164443  .00000134  00000-0  18998-4 0  9996,2 55935  69.9987 173.8015 0001971 266.2781  93.8153 14.98329787 42230,6950.194,96.107,573.428,570.689,0.0
55935.0,STARLINK-5920,PAYLOAD,2023-12-18 14:08:30,14.98331361,0.0001993,69.9987,172.1188,266.5648,93.5283,2.8537e-05,2.48e-06,0.0,0 STARLINK-5920,1 55935U 23037X   23352.58924247  .00000248  00000-0  28537-4 0  9991,2 55935  69.9987 172.1188 0001993 266.5648  93.5283 14.98331361 42335,6950.189,96.107,573.439,570.669,0.0
55935.0,STARLINK-5920,PAYLOAD,2023-12-18 22:09:10,14.98332127,0.0002001,69.9988,171.2774,268.2505,91.8425,3.4335e-05,3.17e-06,0.0,0 STARLINK-5920,1 55935U 23037X   23352.92304153  .00000317  00000-0  34335-4 0  9997,2 55935  69.9988 171.2774 0002001 268.2505  91.8425 14.98332127 42384,6950.186,96.107,573.442,570.661,0.0
55935.0,STARLINK-5920,PAYLOAD,2023-12-19 14:10:31,14.98332194,0.0002008,69.9988,169.5944,267.4938,92.5991,1.6117e-05,9.9e-07,0.0,0 STARLINK-5920,1 55935U 23037X   23353.59064100  .00000099  00000-0  16117-4 0  9991,2 55935  69.9988 169.5944 0002008 267.4938  92.5991 14.98332194 42482,6950.186,96.107,573.447,570.656,0.0
55935.0,STARLINK-5920,PAYLOAD,2023-12-19 22:11:11,14.98331899,0.0002055,69.9989,168.7531,269.6353,90.457,7.8908e-06,1e-08,0.0,0 STARLINK-5920,1 55935U 23037X   23353.92444104  .00000001  00000-0  78908-5 0  9994,2 55935  69.9989 168.7531 0002055 269.6353  90.4570 14.98331899 42877,6950.187,96.107,573.48,570.624,0.0
55935.0,STARLINK-5920,PAYLOAD,2023-12-20 14:12:32,14.98328081,0.0002007,69.9993,167.0706,270.7641,89.3288,-5.0417e-05,-6.94e-06,0.0,0 STARLINK-5920,1 55935U 23037X   23354.59204504 -.00000694  00000-0 -50417-4 0  9990,2 55935  69.9993 167.0706 0002007 270.7641  89.3288 14.98328081 42634,6950.199,96.107,573.459,570.669,0.0
55935.0,STARLINK-5920,PAYLOAD,2023-12-20 19:00:56,14.98327067,0.000203,69.9993,166.5657,271.3014,88.7912,-5.9359e-05,-8.01e-06,0.0,0 STARLINK-5920,1 55935U 23037X   23354.79232614 -.00000801  00000-0 -59359-4 0  9999,2 55935  69.9993 166.5657 0002030 271.3014  88.7912 14.98327067 43002,6950.202,96.107,573.478,570.656,0.0
55935.0,STARLINK-5920,PAYLOAD,2023-12-20 22:13:13,14.98327323,0.0002052,69.9993,166.2291,272.9137,87.1787,-5.5619e-05,-7.56e-06,0.0,0 STARLINK-5920,1 55935U 23037X   23354.92584617 -.00000756  00000-0 -55619-4 0  9991,2 55935  69.9993 166.2291 0002052 272.9137  87.1787 14.98327323 42681,6950.201,96.107,573.492,570.64,0.0
55935.0,STARLINK-5920,PAYLOAD,2023-12-21 14:14:33,14.98332306,0.0002173,69.9992,164.5458,273.5287,86.5624,1.3492e-05,6.8e-07,0.0,0 STARLINK-5920,1 55935U 23037X   23355.59344063  .00000068  00000-0  13492-4 0  9991,2 55935  69.9992 164.5458 0002173 273.5287  86.5624 14.98332306 42784,6950.186,96.107,573.561,570.54,0.0
55935.0,STARLINK-5920,PAYLOAD,2023-12-21 15:50:41,14.98332514,0.0002173,69.9992,164.3775,273.7044,86.3866,1.6342e-05,1.02e-06,0.0,0 STARLINK-5920,1 55935U 23037X   23355.66020034  .00000102  00000-0  16342-4 0  9994,2 55935  69.9992 164.3775 0002173 273.7044  86.3866 14.98332514 43134,6950.185,96.107,573.56,570.54,0.0
55935.0,STARLINK-5920,PAYLOAD,2023-12-21 20:39:05,14.98333685,0.0002156,69.9993,163.8725,274.8359,85.2553,3.1999e-05,2.89e-06,0.0,0 STARLINK-5920,1 55935U 23037X   23355.86047889  .00000289  00000-0  31999-4 0  9994,2 55935  69.9993 163.8725 0002156 274.8359  85.2553 14.98333685 42822,6950.181,96.107,573.545,570.548,0.0
55935.0,STARLINK-5920,PAYLOAD,2023-12-22 14:16:31,14.98354166,0.0002553,69.9986,162.021,274.6593,85.4274,0.00025505,2.953e-05,0.0,0 STARLINK-5920,1 55935U 23037X   23356.59481243  .00002953  00000-0  25505-3 0  9996,2 55935  69.9986 162.0210 0002553 274.6593  85.4274 14.98354166 42934,6950.118,96.105,573.758,570.209,0.0
55935.0,STARLINK-5920,PAYLOAD,2023-12-22 19:04:57,14.98328953,0.0002471,69.9992,161.5159,283.9511,76.1373,9.2614e-06,1.8e-07,0.0,0 STARLINK-5920,1 55935U 23037X   23356.79511363  .00000018  00000-0  92614-5 0  9992,2 55935  69.9992 161.5159 0002471 283.9511  76.1373 14.98328953 43303,6950.196,96.107,573.779,570.344,0.0
55935.0,STARLINK-5920,PAYLOAD,2023-12-22 20:41:06,14.98327334,0.000248,69.9992,161.3474,284.9532,75.1352,-1.0173e-05,-2.14e-06,0.0,0 STARLINK-5920,1 55935U 23037X   23356.86187510 -.00000214  00000-0 -10173-4 0  9992,2 55935  69.9992 161.3474 0002480 284.9532  75.1352 14.98327334 42975,6950.201,96.107,573.79,570.342,0.0
55935.0,STARLINK-5920,PAYLOAD,2023-12-23 11:06:19,14.98323027,0.0002159,70.0001,159.8298,289.5627,70.5299,-8.6056e-05,-1.119e-05,0.0,0 STARLINK-5920,1 55935U 23037X   23357.46272081 -.00001119  00000-0 -86056-4 0  9995,2 55935  70.0001 159.8298 0002159 289.5627  70.5299 14.98323027 43407,6950.214,96.107,573.58,570.579,0.0
55935.0,STARLINK-5920,PAYLOAD,2023-12-23 14:18:35,14.98325034,0.0002289,69.9995,159.4964,271.5522,88.5375,-0.00012151,-1.542e-05,0.0,0 STARLINK-5920,1 55935U 23037X   23357.59624158 -.00001542  00000-0 -12151-3 0  9999,2 55935  69.9995 159.4964 0002289 271.5522  88.5375 14.98325034 43089,6950.208,96.107,573.664,570.482,0.0
